[{"OBJECT_NAME":"SCS-01 M","OBJECT_ID":"2025-100M","EPOCH":"2026-03-09T23:50:15.541152","MEAN_MOTION":15.31880861,"ECCENTRICITY":0.00078021,"INCLINATION":97.3725,"RA_OF_ASC_NODE":145.6908,"ARG_OF_PERICENTER":292.3826,"MEAN_ANOMALY":67.6588,"EPHEMERIS_TYPE":0,"CLASSIFICATION_TYPE":"U","NORAD_CAT_ID":63993,"ELEMENT_SET_NO":999,"REV_AT_EPOCH":4565,"BSTAR":0.0012010051,"MEAN_MOTION_DOT":0.00037061,"MEAN_MOTION_DDOT":0},{"OBJECT_NAME":"STARLINK-34494","OBJECT_ID":"2025-137T","EPOCH":"2026-03-09T22:40:37.860096","MEAN_MOTION":15.30209002,"ECCENTRICITY":0.00023273,"INCLINATION":53.1593,"RA_OF_ASC_NODE":334.0758,"ARG_OF_PERICENTER":152.5769,"MEAN_ANOMALY":207.5355,"EPHEMERIS_TYPE":0,"CLASSIFICATION_TYPE":"U","NORAD_CAT_ID":64611,"ELEMENT_SET_NO":999,"REV_AT_EPOCH":4077,"BSTAR":0.0011990034,"MEAN_MOTION_DOT":0.00035332,"MEAN_MOTION_DDOT":0}]
